NORAD_CAT_ID,OBJECT_NAME,OBJECT_TYPE,EPOCH,MEAN_MOTION,ECCENTRICITY,INCLINATION,RA_OF_ASC_NODE,ARG_OF_PERICENTER,MEAN_ANOMALY,BSTAR,MEAN_MOTION_DOT,MEAN_MOTION_DDOT,TLE_LINE0,TLE_LINE1,TLE_LINE2,SEMIMAJOR_AXIS,PERIOD,APOGEE,PERIGEE,DECAYED
55917.0,STARLINK-5855,PAYLOAD,2024-03-21 14:40:16,15.07073315,0.0004453,70.0001,311.1066,243.1398,116.931,0.0015265,0.00022927,0.0,0 STARLINK-5855,1 55917U 23037D   24081.61129974  .00022927  00000-0  15265-2 0  9999,2 55917  70.0001 311.1066 0004453 243.1398 116.9310 15.07073315 56027,6923.286,95.549,548.234,542.068,0.0
55917.0,STARLINK-5855,PAYLOAD,2024-03-21 22:38:09,15.07095234,0.0004401,70.0,310.2584,243.9139,116.1572,0.0020002,0.00030121,0.0,0 STARLINK-5855,1 55917U 23037D   24081.94316107  .00030121  00000-0  20002-2 0  9991,2 55917  70.0000 310.2584 0004401 243.9139 116.1572 15.07095234 56076,6923.219,95.548,548.13,542.037,0.0
55917.0,STARLINK-5855,PAYLOAD,2024-03-22 11:22:44,15.07117448,0.0004397,69.9998,308.9012,242.7645,117.3071,0.0013564,0.00020378,0.0,0 STARLINK-5855,1 55917U 23037D   24082.47413172  .00020378  00000-0  13564-2 0  9998,2 55917  69.9998 308.9012 0004397 242.7645 117.3071 15.07117448 56497,6923.151,95.547,548.06,541.971,0.0
55917.0,STARLINK-5855,PAYLOAD,2024-03-22 14:33:53,15.07123145,0.0004401,69.9998,308.5618,242.5158,117.5558,0.0012669,0.00019026,0.0,0 STARLINK-5855,1 55917U 23037D   24082.60687322  .00019026  00000-0  12669-2 0  9996,2 55917  69.9998 308.5618 0004401 242.5158 117.5558 15.07123145 56176,6923.133,95.546,548.045,541.951,0.0
55917.0,STARLINK-5855,PAYLOAD,2024-03-22 22:31:45,15.07137485,0.000438,69.9998,307.7136,242.9541,117.1176,0.0012211,0.0001834,0.0,0 STARLINK-5855,1 55917U 23037D   24082.93872394  .00018340  00000-0  12211-2 0  9998,2 55917  69.9998 307.7136 0004380 242.9541 117.1176 15.07137485 56228,6923.089,95.545,547.987,541.922,0.0
55917.0,STARLINK-5855,PAYLOAD,2024-03-23 19:14:11,15.07183255,0.0004421,69.9995,305.5079,242.2511,117.8204,0.0016234,0.00024467,0.0,0 STARLINK-5855,1 55917U 23037D   24083.80151930  .00024467  00000-0  16234-2 0  9997,2 55917  69.9995 305.5079 0004421 242.2511 117.8204 15.07183255 56699,6922.949,95.542,547.875,541.753,0.0
55917.0,STARLINK-5855,PAYLOAD,2024-03-23 22:25:19,15.07192028,0.0004393,69.9993,305.1687,242.6221,117.4496,0.001674,0.00025241,0.0,0 STARLINK-5855,1 55917U 23037D   24083.93425426  .00025241  00000-0  16740-2 0  9998,2 55917  69.9993 305.1687 0004393 242.6221 117.4496 15.07192028 56370,6922.922,95.542,547.828,541.746,0.0
55917.0,STARLINK-5855,PAYLOAD,2024-03-24 07:58:44,15.07212898,0.000443,69.9992,304.1504,241.3495,118.7224,0.0015202,0.00022918,0.0,0 STARLINK-5855,1 55917U 23037D   24084.33245633  .00022918  00000-0  15202-2 0  9993,2 55917  69.9992 304.1504 0004430 241.3495 118.7224 15.07212898 56435,6922.858,95.541,547.79,541.656,0.0
55917.0,STARLINK-5855,PAYLOAD,2024-03-24 20:43:16,15.07269486,0.0004452,69.9991,302.7928,241.5181,118.5535,0.00422,0.0006427,0.0,0 STARLINK-5855,1 55917U 23037D   24084.86338394  .00064270  00000-0  42200-2 0  9993,2 55917  69.9991 302.7928 0004452 241.5181 118.5535 15.07269486 56850,6922.685,95.537,547.632,541.468,0.0
55917.0,STARLINK-5855,PAYLOAD,2024-03-24 22:18:50,15.07277295,0.0004442,69.9991,302.6231,241.6383,118.4333,0.0044522,0.00067861,0.0,0 STARLINK-5855,1 55917U 23037D   24084.92974844  .00067861  00000-0  44522-2 0  9994,2 55917  69.9991 302.6231 0004442 241.6383 118.4333 15.07277295 56526,6922.661,95.537,547.601,541.451,0.0
55917.0,STARLINK-5855,PAYLOAD,2024-03-25 07:52:13,15.07281899,0.0004439,69.9988,301.6047,240.6054,119.4667,0.0022091,0.00033462,0.0,0 STARLINK-5855,1 55917U 23037D   24085.32793268  .00033462  00000-0  22091-2 0  9995,2 55917  69.9988 301.6047 0004439 240.6054 119.4667 15.07281899 56926,6922.647,95.536,547.585,541.439,0.0
55917.0,STARLINK-5855,PAYLOAD,2024-03-25 20:36:43,15.07303511,0.0004452,69.9986,300.2465,240.0218,120.0504,0.0020613,0.00031225,0.0,0 STARLINK-5855,1 55917U 23037D   24085.85884094  .00031225  00000-0  20613-2 0  9994,2 55917  69.9986 300.2465 0004452 240.0218 120.0504 15.07303511 57008,6922.581,95.535,547.528,541.364,0.0
55917.0,STARLINK-5855,PAYLOAD,2024-03-25 22:12:17,15.0730603,0.0004473,69.9987,300.0768,240.2885,119.7833,0.002113,0.00032017,0.0,0 STARLINK-5855,1 55917U 23037D   24085.92520400  .00032017  00000-0  21130-2 0  9995,2 55917  69.9987 300.0768 0004473 240.2885 119.7833 15.07306030 56679,6922.573,95.535,547.535,541.342,0.0
55917.0,STARLINK-5855,PAYLOAD,2024-03-26 07:45:39,15.07323928,0.000452,69.9992,299.0582,239.8555,120.2161,0.0022433,0.00034023,0.0,0 STARLINK-5855,1 55917U 23037D   24086.32337838  .00034023  00000-0  22433-2 0  9997,2 55917  69.9992 299.0582 0004520 239.8555 120.2161 15.07323928 56730,6922.518,95.534,547.512,541.254,0.0
55917.0,STARLINK-5855,PAYLOAD,2024-03-26 20:30:09,15.07328923,0.000452,69.9992,297.701,240.3877,119.6837,0.0010506,0.00015842,0.0,0 STARLINK-5855,1 55917U 23037D   24086.85427270  .00015842  00000-0  10506-2 0  9991,2 55917  69.9992 297.7010 0004520 240.3877 119.6837 15.07328923 57154,6922.503,95.533,547.497,541.239,0.0
55917.0,STARLINK-5855,PAYLOAD,2024-03-26 22:05:42,15.07331438,0.0004492,69.9993,297.5312,240.3576,119.714,0.0010676,0.00016101,0.0,0 STARLINK-5855,1 55917U 23037D   24086.92063415  .00016101  00000-0  10676-2 0  9993,2 55917  69.9993 297.5312 0004492 240.3576 119.7140 15.07331438 56828,6922.495,95.533,547.47,541.251,0.0
55917.0,STARLINK-5855,PAYLOAD,2024-03-27 14:01:18,15.07350583,0.0004496,69.9994,295.8348,239.8967,120.1752,0.00090754,0.00013674,0.0,0 STARLINK-5855,1 55917U 23037D   24087.58424361  .00013674  00000-0  90754-3 0  9995,2 55917  69.9994 295.8348 0004496 239.8967 120.1752 15.07350583 56928,6922.437,95.532,547.414,541.189,0.0
55917.0,STARLINK-5855,PAYLOAD,2024-03-27 21:59:06,15.07359789,0.0004502,69.9994,294.9862,239.8647,120.2071,0.00088003,0.00013259,0.0,0 STARLINK-5855,1 55917U 23037D   24087.91604542  .00013259  00000-0  88003-3 0  9996,2 55917  69.9994 294.9862 0004502 239.8647 120.2071 15.07359789 56979,6922.409,95.531,547.39,541.157,0.0
55917.0,STARLINK-5855,PAYLOAD,2024-03-27 23:34:39,15.07361993,0.0004501,69.9994,294.8165,239.844,120.2278,0.0008819,0.00013289,0.0,0 STARLINK-5855,1 55917U 23037D   24087.98240547  .00013289  00000-0  88190-3 0  9994,2 55917  69.9994 294.8165 0004501 239.8440 120.2278 15.07361993 57323,6922.402,95.531,547.383,541.151,0.0
55917.0,STARLINK-5855,PAYLOAD,2024-03-28 13:54:41,15.07379261,0.0004476,69.9994,293.2892,239.6221,120.4501,0.00090672,0.00013673,0.0,0 STARLINK-5855,1 55917U 23037D   24088.57964269  .00013673  00000-0  90672-3 0  9999,2 55917  69.9994 293.2892 0004476 239.6221 120.4501 15.07379261 57079,6922.349,95.53,547.312,541.115,0.0
55917.0,STARLINK-5855,PAYLOAD,2024-03-28 21:52:28,15.07386731,0.0004487,69.9995,292.4405,239.6182,120.4538,0.00083605,0.000126,0.0,0 STARLINK-5855,1 55917U 23037D   24088.91143874  .00012600  00000-0  83605-3 0  9995,2 55917  69.9995 292.4405 0004487 239.6182 120.4538 15.07386731 57125,6922.326,95.53,547.297,541.085,0.0
55917.0,STARLINK-5855,PAYLOAD,2024-03-29 07:25:48,15.07397335,0.0004479,69.9996,291.4223,239.6321,120.44,0.00083767,0.00012628,0.0,0 STARLINK-5855,1 55917U 23037D   24089.30959106  .00012628  00000-0  83767-3 0  9991,2 55917  69.9996 291.4223 0004479 239.6321 120.4400 15.07397335 57523,6922.294,95.529,547.259,541.058,0.0
55917.0,STARLINK-5855,PAYLOAD,2024-03-29 21:45:48,15.07412376,0.0004466,69.9998,289.895,239.6977,120.3745,0.0008149,0.00012286,0.0,0 STARLINK-5855,1 55917U 23037D   24089.90681499  .00012286  00000-0  81490-3 0  9995,2 55917  69.9998 289.8950 0004466 239.6977 120.3745 15.07412376 57272,6922.248,95.528,547.204,541.021,0.0
55917.0,STARLINK-5855,PAYLOAD,2024-03-30 13:41:21,15.07427916,0.0004361,70.0001,288.1983,238.0706,122.0034,0.00073867,0.0001113,0.0,0 STARLINK-5855,1 55917U 23037D   24090.57039060  .00011130  00000-0  73867-3 0  9997,2 55917  70.0001 288.1983 0004361 238.0706 122.0034 15.07427916 57372,6922.2,95.527,547.084,541.046,0.0
55917.0,STARLINK-5855,PAYLOAD,2024-03-30 20:03:34,15.07433901,0.0004347,69.9999,287.519,238.9915,121.0822,0.00084647,0.00012775,0.0,0 STARLINK-5855,1 55917U 23037D   24090.83581982  .00012775  00000-0  84647-3 0  9995,2 55917  69.9999 287.5190 0004347 238.9915 121.0822 15.07433901 57750,6922.182,95.527,547.056,541.038,0.0
55917.0,STARLINK-5855,PAYLOAD,2024-03-30 21:39:08,15.07435135,0.0004441,70.0,287.3494,239.8694,120.203,0.0008718,0.00013161,0.0,0 STARLINK-5855,1 55917U 23037D   24090.90217698  .00013161  00000-0  87180-3 0  9998,2 55917  70.0000 287.3494 0004441 239.8694 120.2030 15.07435135 57427,6922.178,95.526,547.117,540.969,0.0
55917.0,STARLINK-5855,PAYLOAD,2024-03-31 13:34:40,15.07447741,0.0004398,69.9999,285.6531,236.8383,123.2359,0.00073602,0.00011096,0.0,0 STARLINK-5855,1 55917U 23037D   24091.56574304  .00011096  00000-0  73602-3 0  9990,2 55917  69.9999 285.6531 0004398 236.8383 123.2359 15.07447741 57521,6922.139,95.526,547.049,540.96,0.0
55917.0,STARLINK-5855,PAYLOAD,2024-03-31 21:32:26,15.074538,0.0004343,69.9999,284.8039,239.538,120.5355,0.00067891,0.00010228,0.0,0 STARLINK-5855,1 55917U 23037D   24091.89752433  .00010228  00000-0  67891-3 0  9996,2 55917  69.9999 284.8039 0004343 239.5380 120.5355 15.07453800 57576,6922.121,95.525,546.992,540.979,0.0
55917.0,STARLINK-5855,PAYLOAD,2024-03-31 23:07:59,15.07455223,0.0004335,69.9998,284.6342,239.4924,120.5812,0.00067048,0.000101,0.0,0 STARLINK-5855,1 55917U 23037D   24091.96388038  .00010100  00000-0  67048-3 0  9993,2 55917  69.9998 284.6342 0004335 239.4924 120.5812 15.07455223 57922,6922.116,95.525,546.982,540.981,0.0
55917.0,STARLINK-5855,PAYLOAD,2024-04-01 11:52:24,15.07466036,0.0004298,69.9997,283.2769,238.1405,121.9341,0.00067286,0.00010139,0.0,0 STARLINK-5855,1 55917U 23037D   24092.49472659  .00010139  00000-0  67286-3 0  9991,2 55917  69.9997 283.2769 0004298 238.1405 121.9341 15.07466036 57664,6922.083,95.525,546.923,540.973,0.0
